NORAD_CAT_ID,OBJECT_NAME,OBJECT_TYPE,EPOCH,MEAN_MOTION,ECCENTRICITY,INCLINATION,RA_OF_ASC_NODE,ARG_OF_PERICENTER,MEAN_ANOMALY,BSTAR,MEAN_MOTION_DOT,MEAN_MOTION_DDOT,TLE_LINE0,TLE_LINE1,TLE_LINE2,SEMIMAJOR_AXIS,PERIOD,APOGEE,PERIGEE,DECAYED
53711.0,STARLINK-4627,PAYLOAD,2024-02-28 21:36:40,15.08839039,0.0001387,53.2179,329.9656,110.5211,249.593,0.00011339,1.517e-05,0.0,0 STARLINK-4627,1 53711U 22107M   24059.90046469  .00001517  00000-0  11339-3 0  9991,2 53711  53.2179 329.9656 0001387 110.5211 249.5930 15.08839039 82790,6917.883,95.438,540.708,538.789,0.0
53711.0,STARLINK-4627,PAYLOAD,2024-02-29 10:19:45,15.08841367,0.0001242,53.218,327.5878,83.9022,276.2111,0.00010327,1.356e-05,0.0,0 STARLINK-4627,1 53711U 22107M   24060.43038495  .00001356  00000-0  10327-3 0  9998,2 53711  53.2180 327.5878 0001242  83.9022 276.2111 15.08841367 82879,6917.876,95.437,540.6,538.882,0.0
53711.0,STARLINK-4627,PAYLOAD,2024-02-29 21:27:27,15.08842761,0.0001509,53.218,325.5046,112.2397,247.8756,5.8248e-05,6.39e-06,0.0,0 STARLINK-4627,1 53711U 22107M   24060.89406600  .00000639  00000-0  58248-4 0  9993,2 53711  53.2180 325.5046 0001509 112.2397 247.8756 15.08842761 82509,6917.872,95.437,540.781,538.693,0.0
53711.0,STARLINK-4627,PAYLOAD,2024-03-01 10:10:32,15.0884042,0.0001238,53.2185,323.1252,86.2371,273.8763,5.2247e-05,5.44e-06,0.0,0 STARLINK-4627,1 53711U 22107M   24061.42398861  .00000544  00000-0  52247-4 0  9990,2 53711  53.2185 323.1252 0001238  86.2371 273.8763 15.08840420 83023,6917.879,95.438,540.601,538.888,0.0
53711.0,STARLINK-4627,PAYLOAD,2024-03-01 21:18:14,15.08841922,0.000135,53.219,321.0446,96.543,263.5716,1.1994e-07,-2.86e-06,0.0,0 STARLINK-4627,1 53711U 22107M   24061.88766991 -.00000286  00000-0  11994-6 0  9993,2 53711  53.2190 321.0446 0001350  96.5430 263.5716 15.08841922 82656,6917.875,95.437,540.673,538.806,0.0
53711.0,STARLINK-4627,PAYLOAD,2024-03-01 22:53:37,15.08842412,0.0001265,53.2172,320.748,73.3739,286.7392,1.6374e-05,-2.7e-07,0.0,0 STARLINK-4627,1 53711U 22107M   24061.95390968 -.00000027  00000-0  16374-4 0  9996,2 53711  53.2172 320.7480 0001265  73.3739 286.7392 15.08842412 83103,6917.873,95.437,540.613,538.863,0.0
53711.0,STARLINK-4627,PAYLOAD,2024-03-02 21:09:02,15.08819354,0.0001249,53.2166,316.5853,82.5736,277.5398,0.00037843,5.737e-05,0.0,0 STARLINK-4627,1 53711U 22107M   24062.88127607  .00005737  00000-0  37843-3 0  9992,2 53711  53.2166 316.5853 0001249  82.5736 277.5398 15.08819354 83242,6917.943,95.439,540.673,538.944,0.0
53711.0,STARLINK-4627,PAYLOAD,2024-03-03 01:55:11,15.08828819,0.0001387,53.2179,315.6928,86.8841,273.2309,0.00030509,4.569e-05,0.0,0 STARLINK-4627,1 53711U 22107M   24063.07999109  .00004569  00000-0  30509-3 0  9992,2 53711  53.2179 315.6928 0001387  86.8841 273.2309 15.08828819 82831,6917.915,95.438,540.739,538.82,0.0
53711.0,STARLINK-4627,PAYLOAD,2024-03-03 09:52:06,15.08838146,0.0001339,53.2186,314.2049,87.5802,272.5344,2.0882e-05,4.4e-07,0.0,0 STARLINK-4627,1 53711U 22107M   24063.41119209  .00000044  00000-0  20882-4 0  9993,2 53711  53.2186 314.2049 0001339  87.5802 272.5344 15.08838146 83320,6917.886,95.438,540.677,538.825,0.0
53711.0,STARLINK-4627,PAYLOAD,2024-03-04 00:10:34,15.08853431,0.0001344,53.2178,311.5311,93.0503,267.0643,0.00014461,2.015e-05,0.0,0 STARLINK-4627,1 53711U 22107M   24064.00733954  .00002015  00000-0  14461-3 0  9993,2 53711  53.2178 311.5311 0001344  93.0503 267.0643 15.08853431 82974,6917.839,95.437,540.634,538.775,0.0
53711.0,STARLINK-4627,PAYLOAD,2024-03-04 09:42:52,15.08850216,0.0001392,53.2179,309.7462,88.7393,271.3759,0.00011723,1.579e-05,0.0,0 STARLINK-4627,1 53711U 22107M   24064.40478007  .00001579  00000-0  11723-3 0  9994,2 53711  53.2179 309.7462 0001392  88.7393 271.3759 15.08850216 83472,6917.849,95.437,540.677,538.751,0.0
53711.0,STARLINK-4627,PAYLOAD,2024-03-04 22:25:57,15.08856486,0.0001285,53.2174,307.3674,95.418,264.6958,0.0001143,1.532e-05,0.0,0 STARLINK-4627,1 53711U 22107M   24064.93469183  .00001532  00000-0  11430-3 0  9991,2 53711  53.2174 307.3674 0001285  95.4180 264.6958 15.08856486 83556,6917.83,95.437,540.584,538.806,0.0
53711.0,STARLINK-4627,PAYLOAD,2024-03-05 01:36:43,15.08861337,0.0001311,53.2174,306.7716,98.0943,262.0198,0.00015292,2.148e-05,0.0,0 STARLINK-4627,1 53711U 22107M   24065.06716609  .00002148  00000-0  15292-3 0  9998,2 53711  53.2174 306.7716 0001311  98.0943 262.0198 15.08861337 83135,6917.815,95.436,540.587,538.773,0.0
53711.0,STARLINK-4627,PAYLOAD,2024-03-05 20:41:24,15.08811705,0.0001432,53.2171,303.2032,123.7299,236.383,-0.00016976,-2.986e-05,0.0,0 STARLINK-4627,1 53711U 22107M   24065.86208930 -.00002986  00000-0 -16976-3 0  9991,2 53711  53.2171 303.2032 0001432 123.7299 236.3830 15.08811705 83253,6917.967,95.439,540.823,538.841,0.0
53711.0,STARLINK-4627,PAYLOAD,2024-03-06 01:27:34,15.08816312,0.0001467,53.2173,302.3118,113.7267,246.388,-0.00024506,-4.183e-05,0.0,0 STARLINK-4627,1 53711U 22107M   24066.06081319 -.00004183  00000-0 -24506-3 0  9993,2 53711  53.2173 302.3118 0001467 113.7267 246.3880 15.08816312 83729,6917.953,95.439,540.833,538.803,0.0
53711.0,STARLINK-4627,PAYLOAD,2024-03-06 18:56:48,15.08829874,0.0001582,53.2182,299.0396,123.0859,237.0285,-0.00011675,-2.145e-05,0.0,0 STARLINK-4627,1 53711U 22107M   24066.78944682 -.00002145  00000-0 -11675-3 0  9992,2 53711  53.2182 299.0396 0001582 123.0859 237.0285 15.08829874 83394,6917.911,95.438,540.871,538.682,0.0
53711.0,STARLINK-4627,PAYLOAD,2024-03-07 01:18:20,15.08839925,0.0001295,53.2176,297.8527,103.7772,256.3364,-9.5592e-05,-1.809e-05,0.0,0 STARLINK-4627,1 53711U 22107M   24067.05440266 -.00001809  00000-0 -95592-4 0  9999,2 53711  53.2176 297.8527 0001295 103.7772 256.3364 15.08839925 83434,6917.881,95.438,540.641,538.85,0.0
53711.0,STARLINK-4627,PAYLOAD,2024-03-08 07:30:39,15.08860793,0.0001247,53.217,292.2033,111.8888,248.2237,0.00066904,0.00010382,0.0,0 STARLINK-4627,1 53711U 22107M   24068.31295895  .00010382  00000-0  66904-3 0  9993,2 53711  53.2170 292.2033 0001247 111.8888 248.2237 15.08860793 83621,6917.817,95.436,540.544,538.819,0.0
53711.0,STARLINK-4627,PAYLOAD,2024-03-08 15:27:35,15.08861676,0.0001968,53.217,290.7168,90.4258,269.6959,0.00036677,5.557e-05,0.0,0 STARLINK-4627,1 53711U 22107M   24068.64415925  .00005557  00000-0  36677-3 0  9999,2 53711  53.2170 290.7168 0001968  90.4258 269.6959 15.08861676 84110,6917.814,95.436,541.041,538.318,0.0
53711.0,STARLINK-4627,PAYLOAD,2024-03-09 07:21:26,15.08858087,0.0001381,53.2163,287.743,92.4437,267.6713,0.00018393,2.642e-05,0.0,0 STARLINK-4627,1 53711U 22107M   24069.30655353  .00002642  00000-0  18393-3 0  9991,2 53711  53.2163 287.7430 0001381  92.4437 267.6713 15.08858087 83779,6917.825,95.436,540.645,538.735,0.0
53711.0,STARLINK-4627,PAYLOAD,2024-03-09 15:18:21,15.08840151,9.73e-05,53.2144,286.2554,94.4305,265.6799,-0.0003284,-5.51e-05,0.0,0 STARLINK-4627,1 53711U 22107M   24069.63775336 -.00005510  00000-0 -32840-3 0  9993,2 53711  53.2144 286.2554 0000973  94.4305 265.6799 15.08840151 83822,6917.88,95.438,540.418,539.072,0.0
53711.0,STARLINK-4627,PAYLOAD,2024-03-10 07:12:13,15.08851836,0.0001262,53.2167,283.2807,83.3512,276.7624,-2.2327e-05,-6.43e-06,0.0,0 STARLINK-4627,1 53711U 22107M   24070.30015077 -.00000643  00000-0 -22327-4 0  9990,2 53711  53.2167 283.2807 0001262  83.3512 276.7624 15.08851836 83927,6917.844,95.437,540.582,538.836,0.0
53711.0,STARLINK-4627,PAYLOAD,2024-03-10 21:30:41,15.08842639,9.74e-05,53.2166,280.6046,79.7296,280.3806,-1.3072e-05,-4.96e-06,0.0,0 STARLINK-4627,1 53711U 22107M   24070.89631543 -.00000496  00000-0 -13072-4 0  9999,2 53711  53.2166 280.6046 0000974  79.7296 280.3806 15.08842639 84014,6917.872,95.437,540.411,539.064,0.0
53711.0,STARLINK-4627,PAYLOAD,2024-03-11 13:24:33,15.08844962,0.0001928,53.2153,277.6318,80.7104,279.4106,0.00024457,3.607e-05,0.0,0 STARLINK-4627,1 53711U 22107M   24071.55871652  .00003607  00000-0  24457-3 0  9993,2 53711  53.2153 277.6318 0001928  80.7104 279.4106 15.08844962 84550,6917.865,95.437,541.064,538.396,0.0
53711.0,STARLINK-4627,PAYLOAD,2024-03-12 13:15:21,15.08824461,0.0001294,53.2146,273.1724,79.3798,280.734,-6.7534e-05,-1.362e-05,0.0,0 STARLINK-4627,1 53711U 22107M   24072.55233044 -.00001362  00000-0 -67534-4 0  9993,2 53711  53.2146 273.1724 0001294  79.3798 280.7340 15.08824461 84268,6917.928,95.439,540.688,538.898,0.0
53711.0,STARLINK-4627,PAYLOAD,2024-03-12 19:36:54,15.08822299,8.25e-05,53.2167,271.981,84.3684,275.7403,-4.0279e-05,-9.28e-06,0.0,0 STARLINK-4627,1 53711U 22107M   24072.81729940 -.00000928  00000-0 -40279-4 0  9991,2 53711  53.2167 271.9810 0000825  84.3684 275.7403 15.08822299 84746,6917.934,95.439,540.37,539.229,0.0
53711.0,STARLINK-4627,PAYLOAD,2024-03-13 06:44:36,15.088295,0.0001029,53.217,269.9011,83.1143,276.9966,-3.3594e-05,-8.22e-06,0.0,0 STARLINK-4627,1 53711U 22107M   24073.28097817 -.00000822  00000-0 -33594-4 0  9999,2 53711  53.2170 269.9011 0001029  83.1143 276.9966 15.08829500 84372,6917.912,95.438,540.489,539.066,0.0
53711.0,STARLINK-4627,PAYLOAD,2024-03-13 22:38:26,15.08837797,4.15e-05,53.2198,266.9259,253.2733,106.8213,0.00018452,2.65e-05,0.0,0 STARLINK-4627,1 53711U 22107M   24073.94336711  .00002650  00000-0  18452-3 0  9995,2 53711  53.2198 266.9259 0000415 253.2733 106.8213 15.08837797 84919,6917.887,95.438,540.039,539.465,0.0
53711.0,STARLINK-4627,PAYLOAD,2024-03-14 12:56:55,15.08801852,2.54e-05,53.2181,264.249,309.0504,51.0465,0.00069841,0.00010833,0.0,0 STARLINK-4627,1 53711U 22107M   24074.53953650  .00010833  00000-0  69841-3 0  9998,2 53711  53.2181 264.2490 0000254 309.0504  51.0465 15.08801852 84560,6917.997,95.44,540.038,539.686,0.0
53711.0,STARLINK-4627,PAYLOAD,2024-03-14 19:18:27,15.08848409,8.46e-05,53.2159,263.0581,83.8115,276.2974,0.00031331,4.703e-05,0.0,0 STARLINK-4627,1 53711U 22107M   24074.80448292  .00004703  00000-0  31331-3 0  9991,2 53711  53.2159 263.0581 0000846  83.8115 276.2974 15.08848409 84605,6917.855,95.437,540.305,539.134,0.0
